[{"OBJECT_NAME":"ONEWEB-0033","OBJECT_ID":"2020-008M","EPOCH":"2025-08-25T15:00:57.383424","MEAN_MOTION":13.10369699,"ECCENTRICITY":0.00015068,"INCLINATION":87.8753,"RA_OF_ASC_NODE":95.2377,"ARG_OF_PERICENTER":80.5709,"MEAN_ANOMALY":279.5588,"EPHEMERIS_TYPE":0,"CLASSIFICATION_TYPE":"U","NORAD_CAT_ID":45142,"ELEMENT_SET_NO":999,"REV_AT_EPOCH":26950,"BSTAR":-0.0013248201,"MEAN_MOTION_DOT":-4.5e-6,"MEAN_MOTION_DDOT":0},{"OBJECT_NAME":"ONEWEB-0035","OBJECT_ID":"2020-008N","EPOCH":"2025-08-25T13:55:14.446848","MEAN_MOTION":13.10375963,"ECCENTRICITY":0.00015844,"INCLINATION":87.8759,"RA_OF_ASC_NODE":95.2489,"ARG_OF_PERICENTER":79.7462,"MEAN_ANOMALY":280.3844,"EPHEMERIS_TYPE":0,"CLASSIFICATION_TYPE":"U","NORAD_CAT_ID":45143,"ELEMENT_SET_NO":999,"REV_AT_EPOCH":26922,"BSTAR":0.00058097129,"MEAN_MOTION_DOT":2.15e-6,"MEAN_MOTION_DDOT":0},{"OBJECT_NAME":"ONEWEB-0036","OBJECT_ID":"2020-008P","EPOCH":"2025-08-25T13:40:53.128704","MEAN_MOTION":13.10375085,"ECCENTRICITY":0.00020107,"INCLINATION":87.8769,"RA_OF_ASC_NODE":95.1959,"ARG_OF_PERICENTER":84.2274,"MEAN_ANOMALY":275.9082,"EPHEMERIS_TYPE":0,"CLASSIFICATION_TYPE":"U","NORAD_CAT_ID":45144,"ELEMENT_SET_NO":999,"REV_AT_EPOCH":26965,"BSTAR":-0.00083968542,"MEAN_MOTION_DOT":-2.8e-6,"MEAN_MOTION_DDOT":0},{"OBJECT_NAME":"ONEWEB-0038","OBJECT_ID":"2020-008Q","EPOCH":"2025-08-25T12:27:10.463040","MEAN_MOTION":13.11418866,"ECCENTRICITY":0.00023897,"INCLINATION":87.8784,"RA_OF_ASC_NODE":79.978,"ARG_OF_PERICENTER":36.6413,"MEAN_ANOMALY":323.4878,"EPHEMERIS_TYPE":0,"CLASSIFICATION_TYPE":"U","NORAD_CAT_ID":45145,"ELEMENT_SET_NO":999,"REV_AT_EPOCH":27157,"BSTAR":-0.0013557566,"MEAN_MOTION_DOT":-4.68e-6,"MEAN_MOTION_DDOT":0},{"OBJECT_NAME":"ONEWEB-0039","OBJECT_ID":"2020-008R","EPOCH":"2025-08-25T15:05:44.479392","MEAN_MOTION":13.10371552,"ECCENTRICITY":0.00021601,"INCLINATION":87.8756,"RA_OF_ASC_NODE":95.2046,"ARG_OF_PERICENTER":77.7476,"MEAN_ANOMALY":282.3894,"EPHEMERIS_TYPE":0,"CLASSIFICATION_TYPE":"U","NORAD_CAT_ID":45146,"ELEMENT_SET_NO":999,"REV_AT_EPOCH":26945,"BSTAR":-0.0016130073,"MEAN_MOTION_DOT":-5.5e-6,"MEAN_MOTION_DDOT":0},{"OBJECT_NAME":"ONEWEB-0040","OBJECT_ID":"2020-008S","EPOCH":"2025-08-25T14:56:11.076288","MEAN_MOTION":13.10369458,"ECCENTRICITY":0.00017444,"INCLINATION":87.876,"RA_OF_ASC_NODE":95.2353,"ARG_OF_PERICENTER":81.0923,"MEAN_ANOMALY":279.0402,"EPHEMERIS_TYPE":0,"CLASSIFICATION_TYPE":"U","NORAD_CAT_ID":45147,"ELEMENT_SET_NO":999,"REV_AT_EPOCH":26915,"BSTAR":-0.00092778108,"MEAN_MOTION_DOT":-3.11e-6,"MEAN_MOTION_DDOT":0},{"OBJECT_NAME":"ONEWEB-0043","OBJECT_ID":"2020-008U","EPOCH":"2025-08-25T14:58:33.564576","MEAN_MOTION":13.10372762,"ECCENTRICITY":0.00021596,"INCLINATION":87.8757,"RA_OF_ASC_NODE":95.2183,"ARG_OF_PERICENTER":85.2649,"MEAN_ANOMALY":274.8725,"EPHEMERIS_TYPE":0,"CLASSIFICATION_TYPE":"U","NORAD_CAT_ID":45149,"ELEMENT_SET_NO":999,"REV_AT_EPOCH":26947,"BSTAR":-0.00122438,"MEAN_MOTION_DOT":-4.15e-6,"MEAN_MOTION_DDOT":0},{"OBJECT_NAME":"ONEWEB-0044","OBJECT_ID":"2020-008V","EPOCH":"2025-08-25T13:49:15.262176","MEAN_MOTION":13.1037729,"ECCENTRICITY":0.000198,"INCLINATION":87.8762,"RA_OF_ASC_NODE":95.2196,"ARG_OF_PERICENTER":83.1864,"MEAN_ANOMALY":276.9489,"EPHEMERIS_TYPE":0,"CLASSIFICATION_TYPE":"U","NORAD_CAT_ID":45150,"ELEMENT_SET_NO":999,"REV_AT_EPOCH":26976,"BSTAR":-0.0001135534,"MEAN_MOTION_DOT":-2.7e-7,"MEAN_MOTION_DDOT":0},{"OBJECT_NAME":"ONEWEB-0045","OBJECT_ID":"2020-008W","EPOCH":"2025-08-25T12:19:39.717696","MEAN_MOTION":13.11415735,"ECCENTRICITY":0.00017501,"INCLINATION":87.8787,"RA_OF_ASC_NODE":79.9511,"ARG_OF_PERICENTER":81.2945,"MEAN_ANOMALY":278.8381,"EPHEMERIS_TYPE":0,"CLASSIFICATION_TYPE":"U","NORAD_CAT_ID":45151,"ELEMENT_SET_NO":999,"REV_AT_EPOCH":27165,"BSTAR":-0.0015648341,"MEAN_MOTION_DOT":-5.42e-6,"MEAN_MOTION_DDOT":0},{"OBJECT_NAME":"ONEWEB-0047","OBJECT_ID":"2020-008X","EPOCH":"2025-08-25T13:39:42.520032","MEAN_MOTION":13.10372297,"ECCENTRICITY":0.00017928,"INCLINATION":87.8764,"RA_OF_ASC_NODE":95.2307,"ARG_OF_PERICENTER":80.1049,"MEAN_ANOMALY":280.0281,"EPHEMERIS_TYPE":0,"CLASSIFICATION_TYPE":"U","NORAD_CAT_ID":45152,"ELEMENT_SET_NO":999,"REV_AT_EPOCH":26948,"BSTAR":-0.00099230674,"MEAN_MOTION_DOT":-3.34e-6,"MEAN_MOTION_DDOT":0},{"OBJECT_NAME":"ONEWEB-0048","OBJECT_ID":"2020-008Y","EPOCH":"2025-08-25T13:32:31.221600","MEAN_MOTION":13.10375202,"ECCENTRICITY":0.00017714,"INCLINATION":87.8765,"RA_OF_ASC_NODE":95.2565,"ARG_OF_PERICENTER":81.6181,"MEAN_ANOMALY":278.5147,"EPHEMERIS_TYPE":0,"CLASSIFICATION_TYPE":"U","NORAD_CAT_ID":45153,"ELEMENT_SET_NO":999,"REV_AT_EPOCH":26909,"BSTAR":-0.0015326078,"MEAN_MOTION_DOT":-5.22e-6,"MEAN_MOTION_DDOT":0},{"OBJECT_NAME":"ONEWEB-0049","OBJECT_ID":"2020-008Z","EPOCH":"2025-08-25T13:36:06.480288","MEAN_MOTION":13.10375728,"ECCENTRICITY":0.00019271,"INCLINATION":87.8762,"RA_OF_ASC_NODE":95.2483,"ARG_OF_PERICENTER":96.0503,"MEAN_ANOMALY":264.0844,"EPHEMERIS_TYPE":0,"CLASSIFICATION_TYPE":"U","NORAD_CAT_ID":45154,"ELEMENT_SET_NO":999,"REV_AT_EPOCH":26931,"BSTAR":-0.0013289424,"MEAN_MOTION_DOT":-4.51e-6,"MEAN_MOTION_DDOT":0},{"OBJECT_NAME":"ONEWEB-0051","OBJECT_ID":"2020-008AA","EPOCH":"2025-08-25T12:17:13.426080","MEAN_MOTION":13.11416338,"ECCENTRICITY":0.00016415,"INCLINATION":87.8774,"RA_OF_ASC_NODE":79.9933,"ARG_OF_PERICENTER":85.6059,"MEAN_ANOMALY":274.5257,"EPHEMERIS_TYPE":0,"CLASSIFICATION_TYPE":"U","NORAD_CAT_ID":45155,"ELEMENT_SET_NO":999,"REV_AT_EPOCH":27233,"BSTAR":-0.0013756133,"MEAN_MOTION_DOT":-4.75e-6,"MEAN_MOTION_DDOT":0},{"OBJECT_NAME":"ONEWEB-0052","OBJECT_ID":"2020-008AB","EPOCH":"2025-08-25T13:28:55.335648","MEAN_MOTION":13.1037302,"ECCENTRICITY":0.00021038,"INCLINATION":87.8771,"RA_OF_ASC_NODE":95.1983,"ARG_OF_PERICENTER":95.7807,"MEAN_ANOMALY":264.3561,"EPHEMERIS_TYPE":0,"CLASSIFICATION_TYPE":"U","NORAD_CAT_ID":45156,"ELEMENT_SET_NO":999,"REV_AT_EPOCH":26922,"BSTAR":-0.0017062218,"MEAN_MOTION_DOT":-5.83e-6,"MEAN_MOTION_DDOT":0},{"OBJECT_NAME":"ONEWEB-0053","OBJECT_ID":"2020-008AC","EPOCH":"2025-08-25T14:53:45.464640","MEAN_MOTION":13.10368381,"ECCENTRICITY":0.00019407,"INCLINATION":87.8758,"RA_OF_ASC_NODE":95.2417,"ARG_OF_PERICENTER":74.6189,"MEAN_ANOMALY":285.5153,"EPHEMERIS_TYPE":0,"CLASSIFICATION_TYPE":"U","NORAD_CAT_ID":45157,"ELEMENT_SET_NO":999,"REV_AT_EPOCH":26920,"BSTAR":-0.00087444101,"MEAN_MOTION_DOT":-2.93e-6,"MEAN_MOTION_DDOT":0},{"OBJECT_NAME":"ONEWEB-0054","OBJECT_ID":"2020-008AD","EPOCH":"2025-08-25T13:54:02.215584","MEAN_MOTION":13.10376875,"ECCENTRICITY":0.00016811,"INCLINATION":87.8762,"RA_OF_ASC_NODE":95.2238,"ARG_OF_PERICENTER":83.7232,"MEAN_ANOMALY":276.4087,"EPHEMERIS_TYPE":0,"CLASSIFICATION_TYPE":"U","NORAD_CAT_ID":45158,"ELEMENT_SET_NO":999,"REV_AT_EPOCH":26931,"BSTAR":0.00039261775,"MEAN_MOTION_DOT":1.5e-6,"MEAN_MOTION_DDOT":0}]
