ONEWEB-0033             
1 45142U 20008M   25237.62566416 -.00000450  00000+0 -13248-2 0  9991
2 45142  87.8753  95.2377 0001506  80.5709 279.5588 13.10369699269503
ONEWEB-0035             
1 45143U 20008N   25237.58002832  .00000215  00000+0  58097-3 0  9993
2 45143  87.8759  95.2489 0001584  79.7462 280.3844 13.10375963269221
ONEWEB-0036             
1 45144U 20008P   25237.57005936 -.00000280  00000+0 -83969-3 0  9991
2 45144  87.8769  95.1959 0002010  84.2274 275.9082 13.10375085269657
ONEWEB-0038             
1 45145U 20008Q   25237.51887110 -.00000468  00000+0 -13558-2 0  9992
2 45145  87.8784  79.9780 0002389  36.6413 323.4878 13.11418866271574
ONEWEB-0039             
1 45146U 20008R   25237.62898703 -.00000550  00000+0 -16130-2 0  9996
2 45146  87.8756  95.2046 0002160  77.7476 282.3894 13.10371552269456
ONEWEB-0040             
1 45147U 20008S   25237.62235042 -.00000311  00000+0 -92778-3 0  9996
2 45147  87.8760  95.2353 0001744  81.0923 279.0402 13.10369458269152
ONEWEB-0043             
1 45149U 20008U   25237.62399959 -.00000415  00000+0 -12244-2 0  9990
2 45149  87.8757  95.2183 0002159  85.2649 274.8725 13.10372762269471
ONEWEB-0044             
1 45150U 20008V   25237.57587109 -.00000027  00000+0 -11355-3 0  9994
2 45150  87.8762  95.2196 0001980  83.1864 276.9489 13.10377290269763
ONEWEB-0045             
1 45151U 20008W   25237.51365414 -.00000542  00000+0 -15648-2 0  9992
2 45151  87.8787  79.9511 0001750  81.2945 278.8381 13.11415735271656
ONEWEB-0047             
1 45152U 20008X   25237.56924213 -.00000334  00000+0 -99231-3 0  9996
2 45152  87.8764  95.2307 0001792  80.1049 280.0281 13.10372297269481
ONEWEB-0048             
1 45153U 20008Y   25237.56425025 -.00000522  00000+0 -15326-2 0  9995
2 45153  87.8765  95.2565 0001771  81.6181 278.5147 13.10375202269098
ONEWEB-0049             
1 45154U 20008Z   25237.56674167 -.00000451  00000+0 -13289-2 0  9996
2 45154  87.8762  95.2483 0001927  96.0503 264.0844 13.10375728269318
ONEWEB-0051             
1 45155U 20008AA  25237.51196095 -.00000475  00000+0 -13756-2 0  9996
2 45155  87.8774  79.9933 0001641  85.6059 274.5257 13.11416338272338
ONEWEB-0052             
1 45156U 20008AB  25237.56175157 -.00000583  00000+0 -17062-2 0  9992
2 45156  87.8771  95.1983 0002103  95.7807 264.3561 13.10373020269226
ONEWEB-0053             
1 45157U 20008AC  25237.62066510 -.00000293  00000+0 -87444-3 0  9992
2 45157  87.8758  95.2417 0001940  74.6189 285.5153 13.10368381269206
ONEWEB-0054             
1 45158U 20008AD  25237.57919231  .00000150  00000+0  39262-3 0  9999
2 45158  87.8762  95.2238 0001681  83.7232 276.4087 13.10376875269319
